{
  "type": "FeatureCollection",
  "features": [
    {
      "type": "Feature",
      "properties": {
        "norad_id": 34459,
        "name": "COSMOS 2251 DEB",
        "group": "cosmos-2251-debris",
        "lat": 31.66644980535443,
        "lon": -83.7943347735431,
        "alt_km": 809.63606242467,
        "timestamp": "2025-12-05T18:53:13.676143+00:00",
        "meta_object_name": "COSMOS 2251 DEB",
        "meta_object_id": "1993-036TC",
        "meta_epoch": "2025-12-05T05:01:10.227360",
        "meta_mean_motion": 14.00477447,
        "meta_eccentricity": 0.01919188,
        "meta_inclination": 74.0791,
        "meta_ra_of_asc_node": 267.0639,
        "meta_arg_of_pericenter": 338.5462,
        "meta_mean_anomaly": 20.7703,
        "meta_ephemeris_type": 0,
        "meta_classification_type": "U",
        "meta_norad_cat_id": 34459,
        "meta_element_set_no": 999,
        "meta_rev_at_epoch": 85606,
        "meta_bstar": 0.001067732,
        "meta_mean_motion_dot": 1.834e-05,
        "meta_mean_motion_ddot": 0,
        "tle_line1": "1 34459U 93036TC  25339.20914615  .00001834  00000+0  10677-2 0  9994",
        "tle_line2": "2 34459  74.0791 267.0639 0191918 338.5462  20.7703 14.00477447856060"
      },
      "geometry": {
        "type": "Point",
        "coordinates": [
          -83.7943347735431,
          31.66644980535443
        ]
      }
    },
    {
      "type": "Feature",
      "properties": {
        "norad_id": 34464,
        "name": "COSMOS 2251 DEB",
        "group": "cosmos-2251-debris",
        "lat": -73.29235119571018,
        "lon": -13.912420432096553,
        "alt_km": 484.1364672203381,
        "timestamp": "2025-12-05T18:53:13.676153+00:00",
        "meta_object_name": "COSMOS 2251 DEB",
        "meta_object_id": "1993-036TH",
        "meta_epoch": "2025-12-04T16:32:36.857472",
        "meta_mean_motion": 15.25289765,
        "meta_eccentricity": 0.00171288,
        "meta_inclination": 73.9903,
        "meta_ra_of_asc_node": 95.3572,
        "meta_arg_of_pericenter": 267.4892,
        "meta_mean_anomaly": 92.4347,
        "meta_ephemeris_type": 0,
        "meta_classification_type": "U",
        "meta_norad_cat_id": 34464,
        "meta_element_set_no": 999,
        "meta_rev_at_epoch": 89717,
        "meta_bstar": 0.0058235729,
        "meta_mean_motion_dot": 0.00150197,
        "meta_mean_motion_ddot": 0,
        "tle_line1": "1 34464U 93036TH  25338.68931548  .00150197  00000+0  58236-2 0  9995",
        "tle_line2": "2 34464  73.9903  95.3572 0017128 267.4892  92.4347 15.25289765897173"
      },
      "geometry": {
        "type": "Point",
        "coordinates": [
          -13.912420432096553,
          -73.29235119571018
        ]
      }
    },
    {
      "type": "Feature",
      "properties": {
        "norad_id": 34468,
        "name": "COSMOS 2251 DEB",
        "group": "cosmos-2251-debris",
        "lat": -58.92200176120907,
        "lon": 101.824690528076,
        "alt_km": 689.40487913994,
        "timestamp": "2025-12-05T18:53:13.676168+00:00",
        "meta_object_name": "COSMOS 2251 DEB",
        "meta_object_id": "1993-036TM",
        "meta_epoch": "2025-12-05T04:14:51.700128",
        "meta_mean_motion": 14.47593635,
        "meta_eccentricity": 0.0076304,
        "meta_inclination": 74.0116,
        "meta_ra_of_asc_node": 131.3722,
        "meta_arg_of_pericenter": 277.8064,
        "meta_mean_anomaly": 81.4437,
        "meta_ephemeris_type": 0,
        "meta_classification_type": "U",
        "meta_norad_cat_id": 34468,
        "meta_element_set_no": 999,
        "meta_rev_at_epoch": 88352,
        "meta_bstar": 0.00056133094,
        "meta_mean_motion_dot": 2.115e-05,
        "meta_mean_motion_ddot": 0,
        "tle_line1": "1 34468U 93036TM  25339.17698727  .00002115  00000+0  56133-3 0  9994",
        "tle_line2": "2 34468  74.0116 131.3722 0076304 277.8064  81.4437 14.47593635883529"
      },
      "geometry": {
        "type": "Point",
        "coordinates": [
          101.824690528076,
          -58.92200176120907
        ]
      }
    },
    {
      "type": "Feature",
      "properties": {
        "norad_id": 34472,
        "name": "COSMOS 2251 DEB",
        "group": "cosmos-2251-debris",
        "lat": 73.98205386367137,
        "lon": -154.15353398111907,
        "alt_km": 1198.6881725058984,
        "timestamp": "2025-12-05T18:53:13.676178+00:00",
        "meta_object_name": "COSMOS 2251 DEB",
        "meta_object_id": "1993-036TR",
        "meta_epoch": "2025-12-03T15:36:16.702848",
        "meta_mean_motion": 13.70310012,
        "meta_eccentricity": 0.03271295,
        "meta_inclination": 74.0821,
        "meta_ra_of_asc_node": 113.0928,
        "meta_arg_of_pericenter": 246.0443,
        "meta_mean_anomaly": 110.6103,
        "meta_ephemeris_type": 0,
        "meta_classification_type": "U",
        "meta_norad_cat_id": 34472,
        "meta_element_set_no": 999,
        "meta_rev_at_epoch": 83602,
        "meta_bstar": 0.0015293427,
        "meta_mean_motion_dot": 1.946e-05,
        "meta_mean_motion_ddot": 0,
        "tle_line1": "1 34472U 93036TR  25337.65019332  .00001946  00000+0  15293-2 0  9991",
        "tle_line2": "2 34472  74.0821 113.0928 0327129 246.0443 110.6103 13.70310012836024"
      },
      "geometry": {
        "type": "Point",
        "coordinates": [
          -154.15353398111907,
          73.98205386367137
        ]
      }
    },
    {
      "type": "Feature",
      "properties": {
        "norad_id": 34474,
        "name": "COSMOS 2251 DEB",
        "group": "cosmos-2251-debris",
        "lat": 43.26276304002927,
        "lon": -6.100347072337878,
        "alt_km": 725.9548568483242,
        "timestamp": "2025-12-05T18:53:13.676188+00:00",
        "meta_object_name": "COSMOS 2251 DEB",
        "meta_object_id": "1993-036TT",
        "meta_epoch": "2025-12-05T06:46:47.181792",
        "meta_mean_motion": 14.06339335,
        "meta_eccentricity": 0.01978665,
        "meta_inclination": 74.078,
        "meta_ra_of_asc_node": 339.1961,
        "meta_arg_of_pericenter": 54.9729,
        "meta_mean_anomaly": 317.826,
        "meta_ephemeris_type": 0,
        "meta_classification_type": "U",
        "meta_norad_cat_id": 34474,
        "meta_element_set_no": 999,
        "meta_rev_at_epoch": 85404,
        "meta_bstar": 0.0027374661,
        "meta_mean_motion_dot": 5.371e-05,
        "meta_mean_motion_ddot": 0,
        "tle_line1": "1 34474U 93036TT  25339.28249053  .00005371  00000+0  27375-2 0  9999",
        "tle_line2": "2 34474  74.0780 339.1961 0197866  54.9729 317.8260 14.06339335854040"
      },
      "geometry": {
        "type": "Point",
        "coordinates": [
          -6.100347072337878,
          43.26276304002927
        ]
      }
    },
    {
      "type": "Feature",
      "properties": {
        "norad_id": 34476,
        "name": "COSMOS 2251 DEB",
        "group": "cosmos-2251-debris",
        "lat": -73.23052778359417,
        "lon": -13.64466925870877,
        "alt_km": 810.3755490620651,
        "timestamp": "2025-12-05T18:53:13.676198+00:00",
        "meta_object_name": "COSMOS 2251 DEB",
        "meta_object_id": "1993-036TV",
        "meta_epoch": "2025-12-05T07:09:34.341696",
        "meta_mean_motion": 13.81918962,
        "meta_eccentricity": 0.03193226,
        "meta_inclination": 74.0063,
        "meta_ra_of_asc_node": 95.0458,
        "meta_arg_of_pericenter": 316.2456,
        "meta_mean_anomaly": 41.3754,
        "meta_ephemeris_type": 0,
        "meta_classification_type": "U",
        "meta_norad_cat_id": 34476,
        "meta_element_set_no": 999,
        "meta_rev_at_epoch": 83535,
        "meta_bstar": 0.0051704592,
        "meta_mean_motion_dot": 8.167e-05,
        "meta_mean_motion_ddot": 0,
        "tle_line1": "1 34476U 93036TV  25339.29831414  .00008167  00000+0  51705-2 0  9990",
        "tle_line2": "2 34476  74.0063  95.0458 0319322 316.2456  41.3754 13.81918962835350"
      },
      "geometry": {
        "type": "Point",
        "coordinates": [
          -13.64466925870877,
          -73.23052778359417
        ]
      }
    },
    {
      "type": "Feature",
      "properties": {
        "norad_id": 34477,
        "name": "COSMOS 2251 DEB",
        "group": "cosmos-2251-debris",
        "lat": 73.96632887758,
        "lon": 173.89765996633727,
        "alt_km": 750.634460862977,
        "timestamp": "2025-12-05T18:53:13.676207+00:00",
        "meta_object_name": "COSMOS 2251 DEB",
        "meta_object_id": "1993-036TW",
        "meta_epoch": "2025-12-05T07:02:03.901344",
        "meta_mean_motion": 14.56774424,
        "meta_eccentricity": 0.00769265,
        "meta_inclination": 73.9794,
        "meta_ra_of_asc_node": 83.6901,
        "meta_arg_of_pericenter": 272.1928,
        "meta_mean_anomaly": 109.1516,
        "meta_ephemeris_type": 0,
        "meta_classification_type": "U",
        "meta_norad_cat_id": 34477,
        "meta_element_set_no": 999,
        "meta_rev_at_epoch": 88517,
        "meta_bstar": 0.0017025635,
        "meta_mean_motion_dot": 7.909e-05,
        "meta_mean_motion_ddot": 0,
        "tle_line1": "1 34477U 93036TW  25339.29310071  .00007909  00000+0  17026-2 0  9993",
        "tle_line2": "2 34477  73.9794  83.6901 0076926 272.1928 109.1516 14.56774424885170"
      },
      "geometry": {
        "type": "Point",
        "coordinates": [
          173.89765996633727,
          73.96632887758
        ]
      }
    }
  ]
}